{"type": "FeatureCollection", "features": [ {"type": "Feature", "properties": {"norad_id": 44622, "name": "GAOFEN-10R", "group": "resource", "lat": -65.38128745103253, "lon": -46.14941611558293, "alt_km": 629.0020647843903, "timestamp": "2025-12-14T09:36:22.692248+00:00", "meta": {"OBJECT_NAME": "GAOFEN-10R", "OBJECT_ID": "2019-066A", "EPOCH": "2025-12-13T16:05:28.747104", "MEAN_MOTION": 14.82797425, "ECCENTRICITY": 0.00078201, "INCLINATION": 98.0276, "RA_OF_ASC_NODE": 295.1803, "ARG_OF_PERICENTER": 39.3026, "MEAN_ANOMALY": 320.8753, "EPHEMERIS_TYPE": 0, "CLASSIFICATION_TYPE": "U", "NORAD_CAT_ID": 44622, "ELEMENT_SET_NO": 999, "REV_AT_EPOCH": 33488, "BSTAR": 0.00032230567, "MEAN_MOTION_DOT": 2.553e-05, "MEAN_MOTION_DDOT": 0}, "tle": {"line1": "1 44622U 19066A   25347.67047161  .00002553  00000+0  32231-3 0  9991", "line2": "2 44622  98.0276 295.1803 0007820  39.3026 320.8753 14.82797425334883"}}, "geometry": {"type": "Point", "coordinates": [-46.14941611558293, -65.38128745103253]}}, {"type": "Feature", "properties": {"norad_id": 44804, "name": "CARTOSAT-3", "group": "resource", "lat": -45.85197718607759, "lon": 55.71908688173936, "alt_km": 520.5716321672371, "timestamp": "2025-12-14T09:36:22.692258+00:00", "meta": {"OBJECT_NAME": "CARTOSAT-3", "OBJECT_ID": "2019-081A", "EPOCH": "2025-12-13T16:25:16.142304", "MEAN_MOTION": 15.19166875, "ECCENTRICITY": 0.00141837, "INCLINATION": 97.4586, "RA_OF_ASC_NODE": 47.2556, "ARG_OF_PERICENTER": 80.094, "MEAN_ANOMALY": 280.1895, "EPHEMERIS_TYPE": 0, "CLASSIFICATION_TYPE": "U", "NORAD_CAT_ID": 44804, "ELEMENT_SET_NO": 999, "REV_AT_EPOCH": 33530, "BSTAR": 0.00036994412, "MEAN_MOTION_DOT": 7.732e-05, "MEAN_MOTION_DDOT": 0}, "tle": {"line1": "1 44804U 19081A   25347.68421461  .00007732  00000+0  36994-3 0  9994", "line2": "2 44804  97.4586  47.2556 0014183  80.0940 280.1895 15.19166875335304"}}, "geometry": {"type": "Point", "coordinates": [55.71908688173936, -45.85197718607759]}}, {"type": "Feature", "properties": {"norad_id": 44819, "name": "GAOFEN-12 01", "group": "resource", "lat": -7.759592874630338, "lon": 173.56576720571124, "alt_km": 630.4573819318884, "timestamp": "2025-12-14T09:36:22.692268+00:00", "meta": {"OBJECT_NAME": "GAOFEN-12 01", "OBJECT_ID": "2019-082A", "EPOCH": "2025-12-13T16:32:31.808256", "MEAN_MOTION": 14.80658742, "ECCENTRICITY": 0.00013737, "INCLINATION": 97.8126, "RA_OF_ASC_NODE": 353.9454, "ARG_OF_PERICENTER": 227.6024, "MEAN_ANOMALY": 132.5073, "EPHEMERIS_TYPE": 0, "CLASSIFICATION_TYPE": "U", "NORAD_CAT_ID": 44819, "ELEMENT_SET_NO": 999, "REV_AT_EPOCH": 32664, "BSTAR": 0.00010574739, "MEAN_MOTION_DOT": 7.62e-06, "MEAN_MOTION_DDOT": 0}, "tle": {"line1": "1 44819U 19082A   25347.68925704  .00000762  00000+0  10575-3 0  9993", "line2": "2 44819  97.8126 353.9454 0001373 227.6024 132.5073 14.80658742326648"}}, "geometry": {"type": "Point", "coordinates": [173.56576720571124, -7.759592874630338]}}, {"type": "Feature", "properties": {"norad_id": 44873, "name": "CSG-1", "group": "resource", "lat": -51.72463796044198, "lon": 179.80973633729764, "alt_km": 630.1693258155929, "timestamp": "2025-12-14T09:36:22.692279+00:00", "meta": {"OBJECT_NAME": "CSG-1", "OBJECT_ID": "2019-092A", "EPOCH": "2025-12-13T16:01:11.318304", "MEAN_MOTION": 14.82166148, "ECCENTRICITY": 0.0001443, "INCLINATION": 97.881, "RA_OF_ASC_NODE": 168.9777, "ARG_OF_PERICENTER": 84.9836, "MEAN_ANOMALY": 275.1542, "EPHEMERIS_TYPE": 0, "CLASSIFICATION_TYPE": "U", "NORAD_CAT_ID": 44873, "ELEMENT_SET_NO": 999, "REV_AT_EPOCH": 32399, "BSTAR": 0.00012284787, "MEAN_MOTION_DOT": 9.26e-06, "MEAN_MOTION_DDOT": 0}, "tle": {"line1": "1 44873U 19092A   25347.66749211  .00000926  00000+0  12285-3 0  9991", "line2": "2 44873  97.8810 168.9777 0001443  84.9836 275.1542 14.82166148323999"}}, "geometry": {"type": "Point", "coordinates": [179.80973633729764, -51.72463796044198]}}, {"type": "Feature", "properties": {"norad_id": 46277, "name": "NEMO-HD", "group": "resource", "lat": 81.90436633204524, "lon": -69.46906035731237, "alt_km": 436.62082551112417, "timestamp": "2025-12-14T09:36:22.692289+00:00", "meta": {"OBJECT_NAME": "NEMO-HD", "OBJECT_ID": "2020-061F", "EPOCH": "2025-12-13T16:03:04.900608", "MEAN_MOTION": 15.40352774, "ECCENTRICITY": 0.00018317, "INCLINATION": 97.2215, "RA_OF_ASC_NODE": 46.7546, "ARG_OF_PERICENTER": 55.6098, "MEAN_ANOMALY": 304.5322, "EPHEMERIS_TYPE": 0, "CLASSIFICATION_TYPE": "U", "NORAD_CAT_ID": 46277, "ELEMENT_SET_NO": 999, "REV_AT_EPOCH": 29338, "BSTAR": 0.00032120503, "MEAN_MOTION_DOT": 0.00012889, "MEAN_MOTION_DDOT": 0}, "tle": {"line1": "1 46277U 20061F   25347.66880672  .00012889  00000+0  32121-3 0  9998", "line2": "2 46277  97.2215  46.7546 0001831  55.6098 304.5322 15.40352774293384"}}, "geometry": {"type": "Point", "coordinates": [-69.46906035731237, 81.90436633204524]}}, {"type": "Feature", "properties": {"norad_id": 46984, "name": "SENTINEL-6A", "group": "resource", "lat": -14.271276493209603, "lon": -14.646224111472431, "alt_km": 1339.597145656693, "timestamp": "2025-12-14T09:36:22.692299+00:00", "meta": {"OBJECT_NAME": "SENTINEL-6A", "OBJECT_ID": "2020-086A", "EPOCH": "2025-12-13T15:43:25.244256", "MEAN_MOTION": 12.80930598, "ECCENTRICITY": 0.00077329, "INCLINATION": 66.0389, "RA_OF_ASC_NODE": 160.4067, "ARG_OF_PERICENTER": 269.2353, "MEAN_ANOMALY": 90.7776, "EPHEMERIS_TYPE": 0, "CLASSIFICATION_TYPE": "U", "NORAD_CAT_ID": 46984, "ELEMENT_SET_NO": 999, "REV_AT_EPOCH": 23656, "BSTAR": 0.00012007547, "MEAN_MOTION_DOT": -3.3e-07, "MEAN_MOTION_DDOT": 0}, "tle": {"line1": "1 46984U 20086A   25347.65515329 -.00000033  00000+0  12008-3 0  9994", "line2": "2 46984  66.0389 160.4067 0007732 269.2353  90.7776 12.80930598236561"}}, "geometry": {"type": "Point", "coordinates": [-14.646224111472431, -14.271276493209603]}}, {"type": "Feature", "properties": {"norad_id": 48079, "name": "GAOFEN-12 02", "group": "resource", "lat": -19.10717284356653, "lon": 159.6113466996985, "alt_km": 632.848158580332, "timestamp": "2025-12-14T09:36:22.692309+00:00", "meta": {"OBJECT_NAME": "GAOFEN-12 02", "OBJECT_ID": "2021-026A", "EPOCH": "2025-12-13T16:29:28.294656", "MEAN_MOTION": 14.80676663, "ECCENTRICITY": 0.00035622, "INCLINATION": 97.9852, "RA_OF_ASC_NODE": 341.6889, "ARG_OF_PERICENTER": 99.2153, "MEAN_ANOMALY": 260.9462, "EPHEMERIS_TYPE": 0, "CLASSIFICATION_TYPE": "U", "NORAD_CAT_ID": 48079, "ELEMENT_SET_NO": 999, "REV_AT_EPOCH": 25431, "BSTAR": 0.00010886757, "MEAN_MOTION_DOT": 7.84e-06, "MEAN_MOTION_DDOT": 0}, "tle": {"line1": "1 48079U 21026A   25347.68713304  .00000784  00000+0  10887-3 0  9997", "line2": "2 48079  97.9852 341.6889 0003562  99.2153 260.9462 14.80676663254315"}}, "geometry": {"type": "Point", "coordinates": [159.6113466996985, -19.10717284356653]}}, {"type": "Feature", "properties": {"norad_id": 48268, "name": "PLEIADES NEO 3", "group": "resource", "lat": -81.83315264359264, "lon": 136.01370341041385, "alt_km": 632.2898712216302, "timestamp": "2025-12-14T09:36:22.692319+00:00", "meta": {"OBJECT_NAME": "PLEIADES NEO 3", "OBJECT_ID": "2021-034A", "EPOCH": "2025-12-13T16:10:27.146784", "MEAN_MOTION": 14.81676233, "ECCENTRICITY": 0.00012932, "INCLINATION": 97.894, "RA_OF_ASC_NODE": 60.1013, "ARG_OF_PERICENTER": 92.6887, "MEAN_ANOMALY": 267.4474, "EPHEMERIS_TYPE": 0, "CLASSIFICATION_TYPE": "U", "NORAD_CAT_ID": 48268, "ELEMENT_SET_NO": 999, "REV_AT_EPOCH": 25018, "BSTAR": 0.00027975636, "MEAN_MOTION_DOT": 2.15e-05, "MEAN_MOTION_DDOT": 0}, "tle": {"line1": "1 48268U 21034A   25347.67392531  .00002150  00000+0  27976-3 0  9996", "line2": "2 48268  97.8940  60.1013 0001293  92.6887 267.4474 14.81676233250184"}}, "geometry": {"type": "Point", "coordinates": [136.01370341041385, -81.83315264359264]}}, {"type": "Feature", "properties": {"norad_id": 49070, "name": "PLEIADES NEO 4", "group": "resource", "lat": 81.81224162732973, "lon": -44.539004210406446, "alt_km": 615.7172072369167, "timestamp": "2025-12-14T09:36:22.692329+00:00", "meta": {"OBJECT_NAME": "PLEIADES NEO 4", "OBJECT_ID": "2021-073E", "EPOCH": "2025-12-12T08:34:07.569120", "MEAN_MOTION": 14.81676895, "ECCENTRICITY": 0.00012379, "INCLINATION": 97.8941, "RA_OF_ASC_NODE": 58.7994, "ARG_OF_PERICENTER": 92.1719, "MEAN_ANOMALY": 267.9635, "EPHEMERIS_TYPE": 0, "CLASSIFICATION_TYPE": "U", "NORAD_CAT_ID": 49070, "ELEMENT_SET_NO": 999, "REV_AT_EPOCH": 23370, "BSTAR": 3.8133e-06, "MEAN_MOTION_DOT": -2.2e-07, "MEAN_MOTION_DDOT": 0}, "tle": {"line1": "1 49070U 21073E   25346.35703205 -.00000022  00000+0  38133-5 0  9995", "line2": "2 49070  97.8941  58.7994 0001237  92.1719 267.9635 14.81676895233702"}}, "geometry": {"type": "Point", "coordinates": [-44.539004210406446, 81.81224162732973]}}, {"type": "Feature", "properties": {"norad_id": 49260, "name": "LANDSAT 9", "group": "resource", "lat": -37.510541885712016, "lon": 62.84981379421728, "alt_km": 709.4184867348376, "timestamp": "2025-12-14T09:36:22.692339+00:00", "meta": {"OBJECT_NAME": "LANDSAT 9", "OBJECT_ID": "2021-088A", "EPOCH": "2025-12-13T15:39:04.728384", "MEAN_MOTION": 14.57099195, "ECCENTRICITY": 0.00011757, "INCLINATION": 98.2095, "RA_OF_ASC_NODE": 55.7501, "ARG_OF_PERICENTER": 89.6273, "MEAN_ANOMALY": 270.506, "EPHEMERIS_TYPE": 0, "CLASSIFICATION_TYPE": "U", "NORAD_CAT_ID": 49260, "ELEMENT_SET_NO": 999, "REV_AT_EPOCH": 22398, "BSTAR": 0.00015445641, "MEAN_MOTION_DOT": 6.5e-06, "MEAN_MOTION_DDOT": 0}, "tle": {"line1": "1 49260U 21088A   25347.65213806  .00000650  00000+0  15446-3 0  9995", "line2": "2 49260  98.2095  55.7501 0001175  89.6273 270.5060 14.57099195223982"}}, "geometry": {"type": "Point", "coordinates": [62.84981379421728, -37.510541885712016]}}]}